{
    "links": {
        "self": "http://www.neowsapp.com/rest/v1/neo/3368405?api_key=iIulBulltgU6a56xZRHN4H3l9WmuAYTsLGpBGhQ2"
    },
    "id": "3368405",
    "neo_reference_id": "3368405",
    "name": "(2007 DJ)",
    "designation": "2007 DJ",
    "nasa_jpl_url": "http://ssd.jpl.nasa.gov/sbdb.cgi?sstr=3368405",
    "absolute_magnitude_h": 24.3,
    "estimated_diameter": {
        "kilometers": {
            "estimated_diameter_min": 0.0366906138,
            "estimated_diameter_max": 0.0820427065
        },
        "meters": {
            "estimated_diameter_min": 36.6906137531,
            "estimated_diameter_max": 82.0427064882
        },
        "miles": {
            "estimated_diameter_min": 0.0227984834,
            "estimated_diameter_max": 0.0509789586
        },
        "feet": {
            "estimated_diameter_min": 120.3760332259,
            "estimated_diameter_max": 269.1689931548
        }
    },
    "is_potentially_hazardous_asteroid": false,
    "close_approach_data": [
        {
            "close_approach_date": "1961-02-01",
            "close_approach_date_full": "1961-Feb-01 10:56",
            "epoch_date_close_approach": -281279040000,
            "relative_velocity": {
                "kilometers_per_second": "18.1974020293",
                "kilometers_per_hour": "65510.6473053738",
                "miles_per_hour": "40705.7685992752"
            },
            "miss_distance": {
                "astronomical": "0.340324176",
                "lunar": "132.386104464",
                "kilometers": "50911771.83910512",
                "miles": "31635108.081365856"
            },
            "orbiting_body": "Earth"
        },
        {
            "close_approach_date": "1966-05-17",
            "close_approach_date_full": "1966-May-17 18:14",
            "epoch_date_close_approach": -114414360000,
            "relative_velocity": {
                "kilometers_per_second": "13.9961742257",
                "kilometers_per_hour": "50386.2272125423",
                "miles_per_hour": "31308.0421254822"
            },
            "miss_distance": {
                "astronomical": "0.2449877909",
                "lunar": "95.3002506601",
                "kilometers": "36649651.694645383",
                "miles": "22773037.5632689654"
            },
            "orbiting_body": "Earth"
        },
        {
            "close_approach_date": "2007-03-03",
            "close_approach_date_full": "2007-Mar-03 19:25",
            "epoch_date_close_approach": 1172949900000,
            "relative_velocity": {
                "kilometers_per_second": "8.6707733111",
                "kilometers_per_hour": "31214.7839200759",
                "miles_per_hour": "19395.6528196716"
            },
            "miss_distance": {
                "astronomical": "0.0189496469",
                "lunar": "7.3714126441",
                "kilometers": "2834826.813492103",
                "miles": "1761479.7010049014"
            },
            "orbiting_body": "Earth"
        },
        {
            "close_approach_date": "2012-06-03",
            "close_approach_date_full": "2012-Jun-03 15:25",
            "epoch_date_close_approach": 1338737100000,
            "relative_velocity": {
                "kilometers_per_second": "21.19984636",
                "kilometers_per_hour": "76319.4468959752",
                "miles_per_hour": "47421.9363226686"
            },
            "miss_distance": {
                "astronomical": "0.4715231403",
                "lunar": "183.4225015767",
                "kilometers": "70538857.444591161",
                "miles": "43830813.5542375818"
            },
            "orbiting_body": "Earth"
        }
    ],
    "orbital_data": {
        "orbit_id": "21",
        "orbit_determination_date": "2017-04-06 09:06:59",
        "first_observation_date": "2007-02-17",
        "last_observation_date": "2007-03-06",
        "data_arc_in_days": 17,
        "observations_used": 114,
        "orbit_uncertainty": "7",
        "minimum_orbit_intersection": ".0186179",
        "jupiter_tisserand_invariant": "3.833",
        "epoch_osculation": "2459000.5",
        "eccentricity": ".4758087663896371",
        "semi_major_axis": "1.867229556192289",
        "inclination": "6.930450769479726",
        "ascending_node_longitude": "157.4208612219973",
        "orbital_period": "931.9551156999496",
        "perihelion_distance": ".9787853644941665",
        "perihelion_argument": "29.51871435819972",
        "aphelion_distance": "2.755673747890412",
        "perihelion_time": "2458842.039532107253",
        "mean_anomaly": "61.21085391386499",
        "mean_motion": ".3862846975517916",
        "equinox": "J2000",
        "orbit_class": {
            "orbit_class_type": "APO",
            "orbit_class_description": "Near-Earth asteroid orbits which cross the Earth’s orbit similar to that of 1862 Apollo",
            "orbit_class_range": "a (semi-major axis) > 1.0 AU; q (perihelion) < 1.017 AU"
        }
    },
    "is_sentry_object": false
}